{"type": "FeatureCollection", "name": "princeton_food", "crs": {"type": "name", "properties": {"name": "urn:ogc:def:crs:OGC:1.3:CRS84"}}, "features": [{"type": "Feature", "properties": {"name": "Metro North", "amenity": "restaurant"}, "geometry": {"type": "Point", "coordinates": [-74.65398156697425, 40.33471087151467]}}, {"type": "Feature", "properties": {"name": "Roots Ocean Prime", "amenity": "restaurant"}, "geometry": {"type": "Point", "coordinates": [-74.65944052339016, 40.3433325542987]}}, {"type": "Feature", "properties": {"name": "Starbucks", "amenity": "cafe"}, "geometry": {"type": "Point", "coordinates": [-74.6594551, 40.3499267]}}, {"type": "Feature", "properties": {"name": "Tacoria", "amenity": "fast_food"}, "geometry": {"type": "Point", "coordinates": [-74.65912410000001, 40.3500253]}}, {"type": "Feature", "properties": {"name": "Maruichi Japanese Food & Deli", "amenity": "restaurant"}, "geometry": {"type": "Point", "coordinates": [-74.6582731, 40.3502626]}}, {"type": "Feature", "properties": {"name": "fruita bowl", "amenity": "fast_food"}, "geometry": {"type": "Point", "coordinates": [-74.65786350000002, 40.3503633]}}, {"type": "Feature", "properties": {"name": "PJ's Pancake House", "amenity": "restaurant"}, "geometry": {"type": "Point", "coordinates": [-74.657732, 40.3504103]}}, {"type": "Feature", "properties": {"name": "Alfalfa", "amenity": "fast_food"}, "geometry": {"type": "Point", "coordinates": [-74.6580632597484, 40.350465299263526]}}, {"type": "Feature", "properties": {"name": "J S Foodies", "amenity": "fast_food"}, "geometry": {"type": "Point", "coordinates": [-74.6589766001166, 40.350505600128095]}}, {"type": "Feature", "properties": {"name": "Say Cheez", "amenity": "fast_food"}, "geometry": {"type": "Point", "coordinates": [-74.6555375, 40.3506403]}}, {"type": "Feature", "properties": {"name": "Nassau Sushi", "amenity": "restaurant"}, "geometry": {"type": "Point", "coordinates": [-74.65574570000001, 40.3506972]}}, {"type": "Feature", "properties": {"name": "Fruity Yogurt", "amenity": "ice_cream"}, "geometry": {"type": "Point", "coordinates": [-74.65650160000001, 40.350733799999986]}}, {"type": "Feature", "properties": {"name": "The Mint", "amenity": "restaurant"}, "geometry": {"type": "Point", "coordinates": [-74.6566561, 40.3507523]}}, {"type": "Feature", "properties": {"name": "Thomas Sweet Ice Cream", "amenity": "ice_cream"}, "geometry": {"type": "Point", "coordinates": [-74.6556282, 40.3507528]}}, {"type": "Feature", "properties": {"name": "Thai delight", "amenity": "restaurant"}, "geometry": {"type": "Point", "coordinates": [-74.65594457512022, 40.350953353555596]}}, {"type": "Feature", "properties": {"name": "Aspendos Mediterranean Cuisine", "amenity": "restaurant"}, "geometry": {"type": "Point", "coordinates": [-74.6556967, 40.3509981]}}, {"type": "Feature", "properties": {"name": "Taste of Mexico", "amenity": "restaurant"}, "geometry": {"type": "Point", "coordinates": [-74.65602620000001, 40.3510997]}}, {"type": "Feature", "properties": {"name": "illy Coffee At Earth's End Princeton", "amenity": "cafe"}, "geometry": {"type": "Point", "coordinates": [-74.65848350691849, 40.351175272071465]}}, {"type": "Feature", "properties": {"name": "Ellinikon", "amenity": "cafe"}, "geometry": {"type": "Point", "coordinates": [-74.654813, 40.3513028]}}, {"type": "Feature", "properties": {"name": "Ficus", "amenity": "restaurant"}, "geometry": {"type": "Point", "coordinates": [-74.6523024, 40.3517679]}}, {"type": "Feature", "properties": {"name": "Thai Village", "amenity": "restaurant"}, "geometry": {"type": "Point", "coordinates": [-74.6521351, 40.3518315]}}, {"type": "Feature", "properties": {"name": "Ramen stop", "amenity": "restaurant"}, "geometry": {"type": "Point", "coordinates": [-74.6512352, 40.3521629]}}, {"type": "Feature", "properties": {"name": "Le Kiosk", "amenity": "restaurant"}, "geometry": {"type": "Point", "coordinates": [-74.65090332908537, 40.352174021936506]}}, {"type": "Feature", "properties": {"name": "Hoagie Haven", "amenity": "fast_food"}, "geometry": {"type": "Point", "coordinates": [-74.65190448454707, 40.35219544715761]}}, {"type": "Feature", "properties": {"name": "Fresh \u00d3 Tea", "amenity": "cafe"}, "geometry": {"type": "Point", "coordinates": [-74.6517479, 40.3522007]}}, {"type": "Feature", "properties": {"name": "Pizza Den", "amenity": "restaurant"}, "geometry": {"type": "Point", "coordinates": [-74.65183069053815, 40.352216956298435]}}, {"type": "Feature", "properties": {"name": "BurgerRunn", "amenity": "fast_food"}, "geometry": {"type": "Point", "coordinates": [-74.65168690506819, 40.3522773593742]}}, {"type": "Feature", "properties": {"name": "Tiger Noodles", "amenity": "restaurant"}, "geometry": {"type": "Point", "coordinates": [-74.6512907, 40.352376]}}, {"type": "Feature", "properties": {"name": "Ivy Inn", "amenity": "pub"}, "geometry": {"type": "Point", "coordinates": [-74.6515457, 40.3523818]}}, {"type": "Feature", "properties": {"name": "Small World Coffee", "amenity": "cafe"}, "geometry": {"type": "Point", "coordinates": [-74.6511995, 40.3523833]}}, {"type": "Feature", "properties": {"name": "Efes Mediterranean Grill", "amenity": "restaurant"}, "geometry": {"type": "Point", "coordinates": [-74.6521876, 40.351817199999985]}}, {"type": "Feature", "properties": {"name": "\u9526\u91cc SC house", "amenity": "restaurant"}, "geometry": {"type": "Point", "coordinates": [-74.65217123548872, 40.3521399567217]}}, {"type": "Feature", "properties": {"name": "Nomad", "amenity": "restaurant"}, "geometry": {"type": "Point", "coordinates": [-74.65214286459675, 40.36354586691055]}}, {"type": "Feature", "properties": {"name": "Blue Point Grill", "amenity": "restaurant"}, "geometry": {"type": "Point", "coordinates": [-74.6510893, 40.3524512]}}, {"type": "Feature", "properties": {"name": "Amazing Thai", "amenity": "restaurant"}, "geometry": {"type": "Point", "coordinates": [-74.6508617, 40.3525147]}}, {"type": "Feature", "properties": {"name": "North End Bistro", "amenity": "restaurant"}, "geometry": {"type": "Point", "coordinates": [-74.64505990528953, 40.354311986665614]}}, {"type": "Feature", "properties": {"name": "Chopt", "amenity": "fast_food"}, "geometry": {"type": "Point", "coordinates": [-74.6506947, 40.3624737]}}, {"type": "Feature", "properties": {"name": "Wonder Pho", "amenity": "restaurant"}, "geometry": {"type": "Point", "coordinates": [-74.6505704, 40.362606]}}, {"type": "Feature", "properties": {"name": "Mi Espana", "amenity": "restaurant"}, "geometry": {"type": "Point", "coordinates": [-74.6510851, 40.3627726]}}, {"type": "Feature", "properties": {"name": "Cross Culture", "amenity": "restaurant"}, "geometry": {"type": "Point", "coordinates": [-74.6509016, 40.3628329]}}, {"type": "Feature", "properties": {"name": "Dunkin'", "amenity": "fast_food"}, "geometry": {"type": "Point", "coordinates": [-74.6511385, 40.36283859999999]}}, {"type": "Feature", "properties": {"name": "Pizza Star", "amenity": "restaurant"}, "geometry": {"type": "Point", "coordinates": [-74.6502453, 40.3629302]}}, {"type": "Feature", "properties": {"name": "Rita's Italian Ice", "amenity": "ice_cream"}, "geometry": {"type": "Point", "coordinates": [-74.649906, 40.363042]}}, {"type": "Feature", "properties": {"name": "Pastiamo", "amenity": "restaurant"}, "geometry": {"type": "Point", "coordinates": [-74.6512445, 40.3634297]}}, {"type": "Feature", "properties": {"name": "Starbucks", "amenity": "cafe"}, "geometry": {"type": "Point", "coordinates": [-74.6518121, 40.36391050000001]}}, {"type": "Feature", "properties": {"name": "The Blue Bears", "amenity": "restaurant"}, "geometry": {"type": "Point", "coordinates": [-74.65063, 40.3639149]}}, {"type": "Feature", "properties": {"name": "The Dinky Bar & Kitchen", "amenity": "bar"}, "geometry": {"type": "Point", "coordinates": [-74.6596390499476, 40.34390409996132]}}, {"type": "Feature", "properties": {"name": "Kung Fu Tea", "amenity": "cafe"}, "geometry": {"type": "Point", "coordinates": [-74.6603363, 40.3496821]}}, {"type": "Feature", "properties": {"name": "Proof", "amenity": "fast_food"}, "geometry": {"type": "Point", "coordinates": [-74.6601982, 40.3497179]}}, {"type": "Feature", "properties": {"name": "MTea Sushi & Dessert", "amenity": "restaurant"}, "geometry": {"type": "Point", "coordinates": [-74.6601271, 40.3497342]}}, {"type": "Feature", "properties": {"name": "Agricola Eatery", "amenity": "restaurant"}, "geometry": {"type": "Point", "coordinates": [-74.6598063, 40.3501239]}}, {"type": "Feature", "properties": {"name": "Small World Coffee", "amenity": "cafe"}, "geometry": {"type": "Point", "coordinates": [-74.6601565, 40.3501429]}}, {"type": "Feature", "properties": {"name": "Arlee's Raw Blends", "amenity": "fast_food"}, "geometry": {"type": "Point", "coordinates": [-74.6601631, 40.3502243]}}, {"type": "Feature", "properties": {"name": "Jules Thin Crust", "amenity": "restaurant"}, "geometry": {"type": "Point", "coordinates": [-74.6602176, 40.3503689]}}, {"type": "Feature", "properties": {"name": "Mamoun's Falafel", "amenity": "fast_food"}, "geometry": {"type": "Point", "coordinates": [-74.6602417, 40.3504221]}}, {"type": "Feature", "properties": {"name": "Olives", "amenity": "restaurant"}, "geometry": {"type": "Point", "coordinates": [-74.66028, 40.3504895]}}, {"type": "Feature", "properties": {"name": "Jammin' Crepes", "amenity": "restaurant"}, "geometry": {"type": "Point", "coordinates": [-74.6628894, 40.348972]}}, {"type": "Feature", "properties": {"name": "Sakrid Coffee Roasters", "amenity": "cafe"}, "geometry": {"type": "Point", "coordinates": [-74.6626346, 40.3490456]}}, {"type": "Feature", "properties": {"name": "Ajihei", "amenity": "restaurant"}, "geometry": {"type": "Point", "coordinates": [-74.6625991, 40.3495705]}}, {"type": "Feature", "properties": {"name": "Chennai Chimney", "amenity": "restaurant"}, "geometry": {"type": "Point", "coordinates": [-74.6626535, 40.3497099]}}, {"type": "Feature", "properties": {"name": "Rojo's Roastery", "amenity": "cafe"}, "geometry": {"type": "Point", "coordinates": [-74.6618309, 40.3498344]}}, {"type": "Feature", "properties": {"name": "The Bent Spoon", "amenity": "ice_cream"}, "geometry": {"type": "Point", "coordinates": [-74.6618512, 40.3498809]}}, {"type": "Feature", "properties": {"name": "Winberie's", "amenity": "restaurant"}, "geometry": {"type": "Point", "coordinates": [-74.6608821, 40.3498875]}}, {"type": "Feature", "properties": {"name": "Triumph Brewing Company", "amenity": "restaurant"}, "geometry": {"type": "Point", "coordinates": [-74.6610249723595, 40.3501885357958]}}, {"type": "Feature", "properties": {"name": "Yankee Doodle Tap Room", "amenity": "restaurant"}, "geometry": {"type": "Point", "coordinates": [-74.6617373, 40.3505386]}}, {"type": "Feature", "properties": {"name": "Teresa's Cafe & Wine Bar", "amenity": "cafe"}, "geometry": {"type": "Point", "coordinates": [-74.6608571, 40.35061850000001]}}, {"type": "Feature", "properties": {"name": "La Mezzaluna", "amenity": "restaurant"}, "geometry": {"type": "Point", "coordinates": [-74.6599965, 40.3506002]}}, {"type": "Feature", "properties": {"name": "Alchemist & Barrister", "amenity": "pub"}, "geometry": {"type": "Point", "coordinates": [-74.6603386, 40.3506226]}}, {"type": "Feature", "properties": {"name": "Junbi", "amenity": "cafe"}, "geometry": {"type": "Point", "coordinates": [-74.6600247, 40.3506605]}}, {"type": "Feature", "properties": {"name": "Purinsu Ramen", "amenity": "restaurant"}, "geometry": {"type": "Point", "coordinates": [-74.6603832, 40.3507185]}}, {"type": "Feature", "properties": {"name": "Tico's Eatery & Juice Bar", "amenity": "cafe"}, "geometry": {"type": "Point", "coordinates": [-74.6599038, 40.3508694]}}, {"type": "Feature", "properties": {"name": "Ayat", "amenity": "restaurant"}, "geometry": {"type": "Point", "coordinates": [-74.6596275, 40.3509399]}}, {"type": "Feature", "properties": {"name": "Lan Ramen", "amenity": "restaurant"}, "geometry": {"type": "Point", "coordinates": [-74.6607442, 40.3510114]}}, {"type": "Feature", "properties": {"name": "The Baked Bear", "amenity": "ice_cream"}, "geometry": {"type": "Point", "coordinates": [-74.6601943, 40.3510136]}}, {"type": "Feature", "properties": {"name": "Xi Bei Cuisine", "amenity": "restaurant"}, "geometry": {"type": "Point", "coordinates": [-74.6602117, 40.3510575]}}, {"type": "Feature", "properties": {"name": "Chuck's Spring Street Cafe", "amenity": "fast_food"}, "geometry": {"type": "Point", "coordinates": [-74.6597115, 40.3511201]}}, {"type": "Feature", "properties": {"name": "Kristine", "amenity": "restaurant"}, "geometry": {"type": "Point", "coordinates": [-74.6599328, 40.3512538]}}, {"type": "Feature", "properties": {"name": "Witherspoon Grill", "amenity": "restaurant"}, "geometry": {"type": "Point", "coordinates": [-74.6599553, 40.3513557]}}, {"type": "Feature", "properties": {"name": "Jammin\u2019 Community Cafe", "amenity": "cafe"}, "geometry": {"type": "Point", "coordinates": [-74.66031320000002, 40.3515077]}}, {"type": "Feature", "properties": {"name": "maman", "amenity": "cafe"}, "geometry": {"type": "Point", "coordinates": [-74.662341, 40.3508209]}}, {"type": "Feature", "properties": {"name": "Princeton Soup & Sandwich Company", "amenity": "fast_food"}, "geometry": {"type": "Point", "coordinates": [-74.6612576, 40.3508513]}}, {"type": "Feature", "properties": {"name": "Playa Bowls", "amenity": "fast_food"}, "geometry": {"type": "Point", "coordinates": [-74.6609891, 40.3509566]}}, {"type": "Feature", "properties": {"name": "Mediterra", "amenity": "restaurant"}, "geometry": {"type": "Point", "coordinates": [-74.6621866, 40.3510562]}}, {"type": "Feature", "properties": {"name": "Halo Pub", "amenity": "ice_cream"}, "geometry": {"type": "Point", "coordinates": [-74.66097300001137, 40.351176100026265]}}, {"type": "Feature", "properties": {"name": "Mistral", "amenity": "restaurant"}, "geometry": {"type": "Point", "coordinates": [-74.6608791, 40.3514581]}}, {"type": "Feature", "properties": {"name": "elements", "amenity": "restaurant"}, "geometry": {"type": "Point", "coordinates": [-74.6607477, 40.3514827]}}, {"type": "Feature", "properties": {"name": "Hunan", "amenity": "restaurant"}, "geometry": {"type": "Point", "coordinates": [-74.6614981, 40.3539827]}}, {"type": "Feature", "properties": {"name": "Local Greek", "amenity": "restaurant"}, "geometry": {"type": "Point", "coordinates": [-74.6645836564614, 40.355965604243785]}}, {"type": "Feature", "properties": {"name": "Tortuga's Mexican Village", "amenity": "restaurant"}, "geometry": {"type": "Point", "coordinates": [-74.66478214580258, 40.356296624098256]}}, {"type": "Feature", "properties": {"name": "The Meeting House", "amenity": "restaurant"}, "geometry": {"type": "Point", "coordinates": [-74.6627238, 40.3573143]}}, {"type": "Feature", "properties": {"name": "Conte's Pizza & Bar", "amenity": "restaurant"}, "geometry": {"type": "Point", "coordinates": [-74.66348354593809, 40.35966262052198]}}, {"type": "Feature", "properties": {"name": "Domino's", "amenity": "fast_food"}, "geometry": {"type": "Point", "coordinates": [-74.6639643, 40.3646467]}}], "attribution": "(c) OpenStreetMap contributors, ODbL 1.0, snapshot 2026-08-29"}