{"type": "FeatureCollection", "name": "princeton_boundary", "crs": {"type": "name", "properties": {"name": "urn:ogc:def:crs:OGC:1.3:CRS84"}}, "features": [{"type": "Feature", "properties": {"name": "Princeton, New Jersey"}, "geometry": {"type": "Polygon", "coordinates": [[[-74.6225210172295, 40.3843046278118], [-74.6224245380504, 40.3842451709176], [-74.6220365467963, 40.3840296439089], [-74.6216151956937, 40.3837876607621], [-74.621463171436, 40.3836920688435], [-74.6213604595061, 40.3836086675173], [-74.6211682986468, 40.3834112430022], [-74.6199951710347, 40.3821188796339], [-74.6196353221557, 40.3817496400273], [-74.6195588289393, 40.3816711518118], [-74.6186324698562, 40.3805557208949], [-74.6186107801401, 40.380530460084], [-74.6184856742736, 40.3803847640166], [-74.6183708558606, 40.3802300525767], [-74.6182720053927, 40.3800712618541], [-74.6179866658285, 40.3795804943233], [-74.6179500493204, 40.3795174744251], [-74.6178845583249, 40.3793851140395], [-74.6178363668209, 40.3792507032189], [-74.6177693504272, 40.3790042814101], [-74.6175614544303, 40.378187579286], [-74.6174956824108, 40.3778922641752], [-74.617487484265, 40.3777598714212], [-74.6174858904403, 40.3776070758138], [-74.6175069397349, 40.3774705634819], [-74.6175466998309, 40.3773605238732], [-74.6175971672142, 40.3772769362879], [-74.6184264148362, 40.3762065642523], [-74.6185193983287, 40.3760720369063], [-74.6186522817259, 40.3759089188107], [-74.6187373703003, 40.3758171415861], [-74.6188357718676, 40.3757233475699], [-74.6189141696483, 40.3756234514124], [-74.6189805394195, 40.3755011404592], [-74.6190600774615, 40.3752953066238], [-74.6191078679494, 40.3752015365418], [-74.6191450546784, 40.375140389947], [-74.6192101873899, 40.3750710618402], [-74.6192740431819, 40.3750096139106], [-74.6196232771579, 40.3747159020496], [-74.6197306947608, 40.3746071633277], [-74.6198037135422, 40.3745116096548], [-74.6198509056134, 40.374425938531], [-74.6198562702692, 40.3744149801496], [-74.6199023702954, 40.3743205251813], [-74.6199122275609, 40.3743016057844], [-74.6199789573018, 40.3741735224838], [-74.6200139429342, 40.3741064218748], [-74.6202178732496, 40.3737933948949], [-74.6202199131881, 40.3737902630104], [-74.6202415915047, 40.3737569911216], [-74.6202599333227, 40.3737288392993], [-74.6202616515208, 40.3737262292258], [-74.620370255146, 40.3735594839987], [-74.6204029077276, 40.3735131655258], [-74.620597854344, 40.3732366037726], [-74.6206793729196, 40.3730784786993], [-74.6207346551815, 40.3726997762445], [-74.6207511133825, 40.3722882278852], [-74.6207548908229, 40.371991879794], [-74.6207785075761, 40.3717903036723], [-74.6208058008488, 40.3715572351088], [-74.6209427662277, 40.3711159121375], [-74.621040134609, 40.3709115406135], [-74.6212280270099, 40.3706494252134], [-74.621388292076, 40.370413884316], [-74.6223078806666, 40.369226195512], [-74.6231274193126, 40.3679445560014], [-74.6237090278181, 40.366768964821], [-74.6242082797943, 40.3657262719182], [-74.6244104278171, 40.3652372424609], [-74.6246245706736, 40.3647191878546], [-74.624639288341, 40.3646818651503], [-74.6250015773094, 40.3637644689269], [-74.6252180993313, 40.3631289689571], [-74.625471287269, 40.3618314792018], [-74.6255942777343, 40.3609061044645], [-74.6256663562743, 40.3594275726762], [-74.6257324529797, 40.3580921266526], [-74.62576798402, 40.3570905292573], [-74.6258290755787, 40.3564036960261], [-74.626026601906, 40.3553542664838], [-74.6261047452694, 40.3550779866427], [-74.6266149371769, 40.3532742441419], [-74.6269362748057, 40.351766803766], [-74.6282843104104, 40.3460040683442], [-74.6284648243091, 40.3455924718341], [-74.6286582009694, 40.3452665383023], [-74.6289136472082, 40.3449982673137], [-74.6292687048345, 40.3447010049322], [-74.6298284880783, 40.3443705415205], [-74.6304671196488, 40.3440751796087], [-74.6302453601665, 40.3431986110514], [-74.6302293812222, 40.3431354894396], [-74.6316585672749, 40.3427184392947], [-74.6322647897061, 40.3425756006933], [-74.6323906272395, 40.3425472634866], [-74.6326024515409, 40.342514133378], [-74.6335373510869, 40.3424319924495], [-74.6352244346989, 40.3422737748555], [-74.6371387170207, 40.3421152644053], [-74.6371400797698, 40.3421151249892], [-74.637304504638, 40.3420986235411], [-74.6373068724237, 40.3420984009702], [-74.6388915174701, 40.3419435739676], [-74.6398501367461, 40.341871702072], [-74.6411725123268, 40.3417507893302], [-74.6430184906648, 40.3415908914149], [-74.6436094008935, 40.341517960855], [-74.6439403955472, 40.3414497975537], [-74.6443097778875, 40.3413314855041], [-74.6445483394928, 40.3412398268386], [-74.6447752925155, 40.3411393710882], [-74.645192556153, 40.3408987249536], [-74.6456769522277, 40.3405474975316], [-74.6476278863859, 40.3390998646066], [-74.6477608606278, 40.3389940594885], [-74.6477615755633, 40.3389932074545], [-74.6479927301097, 40.3387188303702], [-74.6482193546191, 40.3384577730269], [-74.6486210764626, 40.3379326762698], [-74.6488475228902, 40.3376089447758], [-74.6493676933781, 40.3368896336978], [-74.6499405012003, 40.336099480136], [-74.6502867001475, 40.3355582798517], [-74.6504472010835, 40.3352690007457], [-74.6508194736216, 40.3346003867012], [-74.6510839190314, 40.3341300344075], [-74.6511364038289, 40.3340346249422], [-74.651854228577, 40.3327300117501], [-74.6520262010427, 40.332411725787], [-74.6522577694726, 40.3319883020907], [-74.6523169625435, 40.3318949142094], [-74.6525029597409, 40.3316260776598], [-74.6526959155339, 40.3313734560656], [-74.6527850123784, 40.3312433248452], [-74.6528374592309, 40.331149315136], [-74.6528933828633, 40.3310226591601], [-74.6529818416392, 40.3307531274805], [-74.6530368615897, 40.3306236724762], [-74.6531074001996, 40.3304722082378], [-74.654563512246, 40.3278381628825], [-74.6545931299319, 40.3277864858532], [-74.654949661875, 40.3272031449736], [-74.6550740837746, 40.3270428501582], [-74.655224159234, 40.3268712931738], [-74.6554119660952, 40.3266826367374], [-74.6559703777986, 40.3261570002132], [-74.6564330765242, 40.3257679825586], [-74.6576888485209, 40.3247786321881], [-74.6589760714935, 40.323757874677], [-74.6607504873788, 40.3223527818941], [-74.6619880677581, 40.3213680218909], [-74.662623883305, 40.3208995920942], [-74.6632417334528, 40.3205550482265], [-74.6638674349927, 40.3202264946412], [-74.6639223045302, 40.3201953414464], [-74.6650927486105, 40.3195853642894], [-74.6671287740556, 40.3185154849795], [-74.6694359325173, 40.317329297569], [-74.6707419073644, 40.3166320687696], [-74.6710181480904, 40.3164558293619], [-74.6712787037239, 40.3162756045763], [-74.6715131363766, 40.3160754602028], [-74.6718230962464, 40.3158192559847], [-74.6721042866827, 40.3155470889972], [-74.6723801942732, 40.3152429746603], [-74.6730255721818, 40.3144827662374], [-74.6746572386429, 40.3125108669413], [-74.6752737105093, 40.3117555753692], [-74.6760004066068, 40.3108501140123], [-74.6764250471567, 40.3103615593464], [-74.6769041486108, 40.3098991371627], [-74.6771770862429, 40.3096559588912], [-74.6773388413735, 40.3095297058574], [-74.6773787441106, 40.3094985691726], [-74.6781840705871, 40.3089642365685], [-74.6799112541579, 40.3078929585852], [-74.6833667917838, 40.3056599234976], [-74.6845581991476, 40.3048798257608], [-74.6863831503198, 40.3080925032054], [-74.6886065660177, 40.3125057878372], [-74.6897741675093, 40.3148234157552], [-74.6898295459662, 40.3149356975695], [-74.6950700724989, 40.3251465812306], [-74.700957366292, 40.3358341417205], [-74.7009760156286, 40.3358704481209], [-74.701248237232, 40.3363698501526], [-74.7016113650933, 40.3370861288243], [-74.7020221513186, 40.3379371675265], [-74.7024584947401, 40.3387059407888], [-74.7027480838284, 40.3392480501755], [-74.7030936203104, 40.3398295372257], [-74.7033398874236, 40.3402533487429], [-74.7036207472688, 40.3407625845806], [-74.7038714572674, 40.3412422799798], [-74.7041264764515, 40.3417219671888], [-74.7044247373935, 40.3422870883426], [-74.7046557213213, 40.3427292621268], [-74.7047662533802, 40.3429409142381], [-74.7053281450533, 40.3439889702858], [-74.7058554142284, 40.3449483335455], [-74.706430937832, 40.345996056966], [-74.7066982139212, 40.3464826053201], [-74.7070859216518, 40.3471860016217], [-74.7072903499381, 40.3475569232437], [-74.7081117017988, 40.3490846359286], [-74.7087905011574, 40.3503692654457], [-74.7091016797149, 40.3509212025668], [-74.7093769575865, 40.3513606490176], [-74.7094376944316, 40.3514613429876], [-74.7114241515518, 40.3551528988777], [-74.7114438084902, 40.3551965725693], [-74.7115645695035, 40.3553958438298], [-74.7119829918035, 40.3561460003566], [-74.7120298277469, 40.3562401570921], [-74.7121521015952, 40.3564859842106], [-74.7124163715557, 40.3569947610558], [-74.712772966995, 40.3576486419204], [-74.7128971551161, 40.3578736847932], [-74.7130411583851, 40.3581345712498], [-74.7132230252526, 40.358484546979], [-74.7133064868063, 40.3586451551703], [-74.713512810374, 40.3590258624208], [-74.7136749121352, 40.3593236909312], [-74.7140963458698, 40.3600917584988], [-74.7143282065676, 40.3605339369117], [-74.7144583874502, 40.3607552606962], [-74.7148168551635, 40.3614326861034], [-74.7148626453115, 40.3615299165694], [-74.7148648482176, 40.3615339969369], [-74.7175202281526, 40.3663380986634], [-74.7177862175929, 40.3668125163239], [-74.7184040572361, 40.3679164626229], [-74.7185173163122, 40.3681187061661], [-74.7185366062748, 40.3681529845443], [-74.7185939445123, 40.3682596088039], [-74.71881932144, 40.3687111718877], [-74.7191527258161, 40.369280689005], [-74.7194421503209, 40.3697780356051], [-74.7197228158868, 40.3702957122661], [-74.7199590184909, 40.3707592832898], [-74.7203461373035, 40.3715385372752], [-74.7204582836615, 40.371764252769], [-74.7210199233501, 40.372894418181], [-74.7216485126226, 40.3741633317681], [-74.7221431210365, 40.3750904212184], [-74.7221269954079, 40.3751749485209], [-74.7218621461461, 40.3752887245296], [-74.7216250965273, 40.3753860016815], [-74.7214117873766, 40.3754771652142], [-74.7211471005395, 40.375586600837], [-74.7207283369085, 40.3757568348279], [-74.7203214157379, 40.3759270159175], [-74.719859163185, 40.3761033684588], [-74.719468017438, 40.3762584180436], [-74.7191835470285, 40.3763678867046], [-74.7189109400043, 40.376483371069], [-74.7185988711721, 40.3766170756906], [-74.7183736727334, 40.3767082569797], [-74.7181642659011, 40.3767873294187], [-74.7179192193432, 40.3768573540608], [-74.7177848181981, 40.3768878591858], [-74.717583189466, 40.3769305981018], [-74.7173835062544, 40.3769646291249], [-74.7169594390271, 40.3770312549098], [-74.7164493796629, 40.3771138798556], [-74.7159245115768, 40.3772010874922], [-74.7151742399286, 40.3773182230653], [-74.7145129006584, 40.3774192950679], [-74.7143557665227, 40.3774467896713], [-74.7142104552205, 40.3774788491739], [-74.7140651729847, 40.377508600974], [-74.7139318152361, 40.3775519744833], [-74.7137925197624, 40.3776021407117], [-74.7136561886561, 40.3776591345284], [-74.7134339523604, 40.3777480220716], [-74.7132087503419, 40.377841472845], [-74.7129983730365, 40.3779235575904], [-74.7127909393115, 40.3780056077153], [-74.7126486626224, 40.3780558050682], [-74.7124797148292, 40.3781060233328], [-74.7123462684706, 40.3781335005], [-74.7122543465236, 40.3781472852783], [-74.7121208287917, 40.3781520596285], [-74.7119635489595, 40.3781455670157], [-74.7118062913116, 40.3781344907398], [-74.7116400881131, 40.3781211789961], [-74.7114946886988, 40.3781146369833], [-74.7113670793485, 40.3781148702882], [-74.7112306340101, 40.3781242053505], [-74.7110942358036, 40.3781494087207], [-74.7109667619593, 40.3781814027637], [-74.7108274559583, 40.3782293138116], [-74.7106733534479, 40.378286337406], [-74.7105014452175, 40.3783547044715], [-74.7101636222902, 40.3784801138763], [-74.7097131696878, 40.3786556622357], [-74.7093071762701, 40.3788152355072], [-74.708901159902, 40.3789679984774], [-74.7086107157465, 40.3790819803592], [-74.7082728712995, 40.3792141931828], [-74.7080032234111, 40.379321329868], [-74.7078668571945, 40.3793692320555], [-74.7077838557721, 40.3793898052577], [-74.7077026588099, 40.3794016451592], [-74.7076088246364, 40.3794014569944], [-74.7074990178115, 40.3793903166897], [-74.7073683945231, 40.3793678474068], [-74.707296114182, 40.3793498045795], [-74.7072021265685, 40.3793341053656], [-74.7071071447626, 40.3793229381252], [-74.7070062495968, 40.3793140321163], [-74.7069231420943, 40.3793119292261], [-74.7068252670026, 40.3793166345827], [-74.706697727681, 40.3793281999936], [-74.7065464305285, 40.3793420863435], [-74.7063803211042, 40.3793605282994], [-74.7061637998844, 40.379385896733], [-74.7059650804983, 40.3794112042363], [-74.7057545732262, 40.3794546777671], [-74.70552623738, 40.3795027398902], [-74.7053835685702, 40.3795328886323], [-74.7052290700509, 40.3795686314146], [-74.705059106153, 40.3796060748221], [-74.7048163319945, 40.3796639340968], [-74.7045956193727, 40.3797167029878], [-74.7041433614613, 40.3798245093526], [-74.7040173290631, 40.3798492474572], [-74.7036255961403, 40.379947062171], [-74.7034297052283, 40.3799938552477], [-74.7029579663416, 40.3801192611199], [-74.7024558939784, 40.3802574002259], [-74.7021717418244, 40.3803317695428], [-74.7019759030529, 40.3803849015397], [-74.7016338122675, 40.3804720824837], [-74.7013496446218, 40.3805422509765], [-74.7011620289617, 40.3805847972497], [-74.7009523013821, 40.3806273834454], [-74.7008088192594, 40.3806508568406], [-74.7006100827172, 40.3806723120973], [-74.7004472340694, 40.3806895059832], [-74.7000221758861, 40.3807261202518], [-74.6996081310288, 40.3807606289446], [-74.6991858186329, 40.3807909227452], [-74.6988297141201, 40.3808147597135], [-74.698592329364, 40.3808278235455], [-74.6983687026925, 40.38083243501], [-74.6980953409913, 40.3808307897727], [-74.6979517759033, 40.3808268079582], [-74.6978365653999, 40.3808335456309], [-74.6978364394046, 40.3808335530517], [-74.6978363169872, 40.3808335757773], [-74.697708909771, 40.3808567890603], [-74.6975653833354, 40.3808781446821], [-74.6974218921402, 40.3808995000655], [-74.6971900601646, 40.3809336888906], [-74.6968037212824, 40.3809913374338], [-74.6963814554905, 40.3810511865463], [-74.6960337339708, 40.381106680126], [-74.6956859947051, 40.3811558312147], [-74.6953161893316, 40.3812092191593], [-74.6949215500112, 40.3812647886271], [-74.6946565993668, 40.3813053426468], [-74.6945213513321, 40.3813224799246], [-74.694054939073, 40.3813865954215], [-74.6935581568585, 40.3814507598732], [-74.6932324556638, 40.3814872107643], [-74.6929592279971, 40.3815214602694], [-74.6927963921358, 40.3815449560144], [-74.6926335963359, 40.3815705652885], [-74.6924486830633, 40.3816067532481], [-74.6921893484489, 40.3816663157927], [-74.6919161800108, 40.3817343289948], [-74.691582355724, 40.3818193229323], [-74.6913561164381, 40.3818788296748], [-74.6910333425955, 40.3819616908161], [-74.6906636069067, 40.3820551985179], [-74.6903435884901, 40.3821359672848], [-74.6900510916918, 40.3821997802406], [-74.6898855364762, 40.3822401860529], [-74.689568187021, 40.3822998109427], [-74.6892232294244, 40.3823595071588], [-74.6889776262109, 40.38240213033], [-74.6886878263444, 40.3824427103761], [-74.6884394524861, 40.3824832501195], [-74.6882159429963, 40.3825194932939], [-74.6879951457485, 40.382549418073], [-74.6877964135742, 40.3825750789505], [-74.6876307962598, 40.3825943451885], [-74.6874569345021, 40.3826178513027], [-74.6872554189891, 40.3826371742881], [-74.6871367339972, 40.3826479355336], [-74.68700423259, 40.3826608049051], [-74.6868579467488, 40.382673724319], [-74.6866895483944, 40.3826866513278], [-74.686504617702, 40.3827059741498], [-74.6862341249128, 40.382731748054], [-74.6859415345178, 40.3827638713132], [-74.6856130811685, 40.3827960784196], [-74.6852459413752, 40.3828325463003], [-74.6850085733636, 40.3828561504462], [-74.6848567882992, 40.3828796182306], [-74.6846084093292, 40.3829201488527], [-74.684246894553, 40.3829925125818], [-74.683868837169, 40.3830670144079], [-74.6836232394469, 40.3831138529458], [-74.6834328354536, 40.3831542628527], [-74.6831651701631, 40.3832053630685], [-74.6829747497284, 40.3832394577926], [-74.6827180596087, 40.383273629911], [-74.682497240314, 40.3832972027531], [-74.6822791839049, 40.3833207699179], [-74.6820804233904, 40.3833379936383], [-74.6818817105822, 40.3833594175718], [-74.6815670142735, 40.3833831362498], [-74.6813157890625, 40.3833940707236], [-74.6810921695861, 40.3834049911465], [-74.680838179988, 40.3834159289118], [-74.6806311047322, 40.3834247078452], [-74.6803688870064, 40.3834462274553], [-74.6801397680012, 40.3834676958169], [-74.6799161817497, 40.3834912680408], [-74.6796981406513, 40.3835211726894], [-74.6794166622899, 40.3835765133409], [-74.6792787036578, 40.383604179099], [-74.6791695944396, 40.3836260079208], [-74.679063441112, 40.3836530747437], [-74.6789006708051, 40.3836913205704], [-74.6786771503226, 40.3837402282705], [-74.6784784365238, 40.3837764152087], [-74.6783376929829, 40.3837956558634], [-74.678130655127, 40.3838191991132], [-74.6779374371642, 40.3838427207285], [-74.6777193884891, 40.3838705078328], [-74.6773715993293, 40.3839111495231], [-74.6770321068451, 40.3839538903903], [-74.6767588521764, 40.383983874008], [-74.6762979165092, 40.3840415950543], [-74.6758645330045, 40.3840929038731], [-74.6754560229058, 40.3841420874269], [-74.6750696403312, 40.3841975766133], [-74.6748626274167, 40.3842316830962], [-74.6747660217472, 40.384244484161], [-74.6746391059577, 40.3842679000448], [-74.6745066273999, 40.3842913241838], [-74.6742444603276, 40.3843487369243], [-74.6740126997439, 40.3844061033194], [-74.6737450465756, 40.3844803797377], [-74.6734553585865, 40.3845716244017], [-74.673099501482, 40.3846882792569], [-74.6729195915094, 40.3847461836792], [-74.6728622222441, 40.3847646481026], [-74.6726939644931, 40.3848218889892], [-74.6725587953312, 40.3848748805322], [-74.672437446226, 40.3849278531112], [-74.6723354277144, 40.3849871076067], [-74.6722500205335, 40.3850569081918], [-74.6721701225794, 40.3851330410825], [-74.6720627607264, 40.3852514363261], [-74.6719609025259, 40.3853740500312], [-74.6718535421963, 40.3855072418415], [-74.6717365802811, 40.3856484635879], [-74.6716525859956, 40.3857376688173], [-74.6715755738261, 40.385805616408], [-74.671509264656, 40.3858476886313], [-74.6714485920383, 40.3858752024707], [-74.6713768814633, 40.3858964479061], [-74.6713088949071, 40.3859134313119], [-74.6712168196634, 40.385930450346], [-74.671065016326, 40.3859517862257], [-74.6709131828984, 40.3859752348737], [-74.6708179928063, 40.3859939171897], [-74.6707614007139, 40.3860050247181], [-74.6705848024924, 40.3860453912712], [-74.6703805938364, 40.3860984820816], [-74.6701957180953, 40.3861452044089], [-74.6699253195706, 40.3862173874054], [-74.6696411317436, 40.3863022738415], [-74.6693155250038, 40.3863914208579], [-74.6690727953156, 40.3864598569737], [-74.6690639349078, 40.3864623683288], [-74.6688133497177, 40.3865336146016], [-74.6684463840978, 40.3866376154024], [-74.6681318368644, 40.3867288567957], [-74.6679083404116, 40.3867946262992], [-74.6674448186043, 40.3869346441385], [-74.6669233710277, 40.3870979958053], [-74.6665094985602, 40.3872252552711], [-74.6664768158688, 40.3872343619558], [-74.6657452271885, 40.3874670498926], [-74.6651796107638, 40.3876431120044], [-74.6649671711734, 40.3877109747461], [-74.6641313384488, 40.3879676304956], [-74.6638456396109, 40.3880571719793], [-74.6635848376066, 40.3881394300169], [-74.6633110410558, 40.3882232432256], [-74.6631351021209, 40.3882730966057], [-74.6628867421435, 40.3883346647195], [-74.6626988004714, 40.3883807155899], [-74.6626987298411, 40.3883807328016], [-74.6626986945271, 40.3883807418578], [-74.6626986603909, 40.3883807509123], [-74.6623182693103, 40.3884790374155], [-74.6620533415323, 40.3885491093042], [-74.6619457351317, 40.3885745709887], [-74.6615069705572, 40.3886892193872], [-74.6610958035016, 40.3887995730112], [-74.6607839844927, 40.3888844761447], [-74.660577010055, 40.3889438661193], [-74.6603893753114, 40.3889990300755], [-74.6601812269525, 40.3890633655314], [-74.6601801512228, 40.3890637227778], [-74.6599783952013, 40.3891292279626], [-74.6597189370335, 40.3892216608495], [-74.6595653340306, 40.3892761721217], [-74.6595642925206, 40.3892765581359], [-74.6593878338631, 40.3893361236259], [-74.6589877906115, 40.3894781338344], [-74.6586208494764, 40.3896053284158], [-74.6582787298504, 40.3897240316678], [-74.6580497058271, 40.3897982458509], [-74.6578013688785, 40.3898745718388], [-74.6575558118827, 40.3899572619922], [-74.657205376614, 40.3900675190035], [-74.656923925959, 40.3901544842489], [-74.6566093602403, 40.3902520357546], [-74.6564410250665, 40.390302939511], [-74.6561430169295, 40.3903877844103], [-74.6557732608835, 40.3904980901822], [-74.6554034694046, 40.3906083668979], [-74.6550530212697, 40.3907165305922], [-74.6544873752913, 40.3908882857117], [-74.6541479229531, 40.3909858628573], [-74.6539293721072, 40.3910558443746], [-74.6535756000683, 40.3909825786558], [-74.6526713682059, 40.3907953089911], [-74.6515161157455, 40.3905561102927], [-74.6513151927851, 40.3905143374063], [-74.6490123416547, 40.3900346908966], [-74.6466229825781, 40.3895369204884], [-74.645365511685, 40.3892729121088], [-74.6441080502082, 40.3890087180029], [-74.6429926870298, 40.3887695554558], [-74.641877331354, 40.3885302110047], [-74.6395358620924, 40.3880277742984], [-74.6371605296428, 40.3875174379033], [-74.6365736091597, 40.3873800162019], [-74.6359864684413, 40.3872425908756], [-74.6337564049845, 40.3868100800298], [-74.6315262565436, 40.3863773551065], [-74.6290029359076, 40.3857975313581], [-74.62806464191, 40.3855820482059], [-74.6271262416593, 40.3853663855227], [-74.6233625939774, 40.3844980077687], [-74.6232126665073, 40.3844714011992], [-74.6225210172295, 40.3843046278118]]]}}]}