{
"type": "FeatureCollection",
"name": "camera_positions",
"crs": { "type": "name", "properties": { "name": "urn:ogc:def:crs:EPSG::4979" } },
"features": [
{ "type": "Feature", "properties": { "filename": "DJI_0496.JPG", "camera": "v2 dji fc3682 4000 2250 brown 0.6666", "focal": 0.65835135079738949, "width": 4000, "height": 2250, "capture_time": 1789665068.0, "translation": "[5.29281500e+05 4.46594203e+06 7.66081286e+01]", "rotation": "[ 1.57630163  2.70411169 -0.01529088]" }, "geometry": { "type": "Point", "coordinates": [ -74.655229908483619, 40.343513572507305, 76.608128616726603 ] } },
{ "type": "Feature", "properties": { "filename": "DJI_0506.JPG", "camera": "v2 dji fc3682 4000 2250 brown 0.6666", "focal": 0.65835135079738949, "width": 4000, "height": 2250, "capture_time": 1789665118.0, "translation": "[5.29374762e+05 4.46596231e+06 7.62195438e+01]", "rotation": "[-1.60904247 -2.69383482 -0.00789316]" }, "geometry": { "type": "Point", "coordinates": [ -74.654130901219972, 40.343693022026642, 76.219543834083694 ] } },
{ "type": "Feature", "properties": { "filename": "DJI_0516.JPG", "camera": "v2 dji fc3682 4000 2250 brown 0.6666", "focal": 0.65835135079738949, "width": 4000, "height": 2250, "capture_time": 1789665168.0, "translation": "[5.29308991e+05 4.46588768e+06 7.59684364e+01]", "rotation": "[ 1.58502665  2.70667971 -0.02398745]" }, "geometry": { "type": "Point", "coordinates": [ -74.654908725684066, 40.343022950262728, 75.96843640879581 ] } },
{ "type": "Feature", "properties": { "filename": "DJI_0519.JPG", "camera": "v2 dji fc3682 4000 2250 brown 0.6666", "focal": 0.65835135079738949, "width": 4000, "height": 2250, "capture_time": 1789665183.0, "translation": "[5.29363929e+05 4.46591866e+06 7.53489348e+01]", "rotation": "[-1.59735686 -2.70406311  0.00925797]" }, "geometry": { "type": "Point", "coordinates": [ -74.65426045482387, 40.343300112318651, 75.348934816389132 ] } },
{ "type": "Feature", "properties": { "filename": "DJI_0507.JPG", "camera": "v2 dji fc3682 4000 2250 brown 0.6666", "focal": 0.65835135079738949, "width": 4000, "height": 2250, "capture_time": 1789665123.0, "translation": "[5.29348026e+05 4.46594909e+06 7.62507692e+01]", "rotation": "[ 1.60826426  2.69863154 -0.00352323]" }, "geometry": { "type": "Point", "coordinates": [ -74.654446296826222, 40.343574856569255, 76.250769212956897 ] } },
{ "type": "Feature", "properties": { "filename": "DJI_0528.JPG", "camera": "v2 dji fc3682 4000 2250 brown 0.6666", "focal": 0.65835135079738949, "width": 4000, "height": 2250, "capture_time": 1789665228.0, "translation": "[5.29446781e+05 4.46593311e+06 7.67500079e+01]", "rotation": "[-1.60294412 -2.68252444 -0.00932699]" }, "geometry": { "type": "Point", "coordinates": [ -74.653284285509258, 40.343427329128723, 76.750007863672877 ] } },
{ "type": "Feature", "properties": { "filename": "DJI_0509.JPG", "camera": "v2 dji fc3682 4000 2250 brown 0.6666", "focal": 0.65835135079738949, "width": 4000, "height": 2250, "capture_time": 1789665133.0, "translation": "[5.29295184e+05 4.46592292e+06 7.68518194e+01]", "rotation": "[ 1.60075701  2.69450695 -0.02153505]" }, "geometry": { "type": "Point", "coordinates": [ -74.65506966817496, 40.343340951771232, 76.851819392152976 ] } },
{ "type": "Feature", "properties": { "filename": "DJI_0534.JPG", "camera": "v2 dji fc3682 4000 2250 brown 0.6666", "focal": 0.65835135079738949, "width": 4000, "height": 2250, "capture_time": 1789665258.0, "translation": "[5.29351145e+05 4.46590425e+06 7.66710434e+01]", "rotation": "[-1.8418983  -2.53503426  0.01426825]" }, "geometry": { "type": "Point", "coordinates": [ -74.654411642132374, 40.343170779167451, 76.671043437798843 ] } },
{ "type": "Feature", "properties": { "filename": "DJI_0536.JPG", "camera": "v2 dji fc3682 4000 2250 brown 0.6666", "focal": 0.65835135079738949, "width": 4000, "height": 2250, "capture_time": 1789665268.0, "translation": "[5.29317004e+05 4.46589594e+06 7.69045401e+01]", "rotation": "[-1.84147777 -2.54007217  0.01937199]" }, "geometry": { "type": "Point", "coordinates": [ -74.654814001760442, 40.343097072944211, 76.904540143234996 ] } },
{ "type": "Feature", "properties": { "filename": "DJI_0526.JPG", "camera": "v2 dji fc3682 4000 2250 brown 0.6666", "focal": 0.65835135079738949, "width": 4000, "height": 2250, "capture_time": 1789665218.0, "translation": "[5.29473910e+05 4.46594618e+06 7.65473620e+01]", "rotation": "[-1.59314196 -2.69237555 -0.0129133 ]" }, "geometry": { "type": "Point", "coordinates": [ -74.652964254247507, 40.343544154069519, 76.54736201651636 ] } },
{ "type": "Feature", "properties": { "filename": "DJI_0527.JPG", "camera": "v2 dji fc3682 4000 2250 brown 0.6666", "focal": 0.65835135079738949, "width": 4000, "height": 2250, "capture_time": 1789665223.0, "translation": "[5.29458802e+05 4.46593865e+06 7.65536354e+01]", "rotation": "[-1.59951568 -2.68696684 -0.01167814]" }, "geometry": { "type": "Point", "coordinates": [ -74.653142492835002, 40.343476903165623, 76.553635351969845 ] } },
{ "type": "Feature", "properties": { "filename": "DJI_0529.JPG", "camera": "v2 dji fc3682 4000 2250 brown 0.6666", "focal": 0.65835135079738949, "width": 4000, "height": 2250, "capture_time": 1789665233.0, "translation": "[5.29429887e+05 4.46592494e+06 7.68812182e+01]", "rotation": "[-1.60836927 -2.6818382  -0.0083492 ]" }, "geometry": { "type": "Point", "coordinates": [ -74.653483566941148, 40.343354377594046, 76.881218178231762 ] } },
{ "type": "Feature", "properties": { "filename": "DJI_0500.JPG", "camera": "v2 dji fc3682 4000 2250 brown 0.6666", "focal": 0.65835135079738949, "width": 4000, "height": 2250, "capture_time": 1789665088.0, "translation": "[5.29431981e+05 4.46602149e+06 7.70054522e+01]", "rotation": "[-1.59221945 -2.69915133 -0.02567537]" }, "geometry": { "type": "Point", "coordinates": [ -74.653454463070275, 40.344224152624506, 77.005452168000048 ] } },
{ "type": "Feature", "properties": { "filename": "DJI_0530.JPG", "camera": "v2 dji fc3682 4000 2250 brown 0.6666", "focal": 0.65835135079738949, "width": 4000, "height": 2250, "capture_time": 1789665238.0, "translation": "[5.29429884e+05 4.46592509e+06 7.68472263e+01]", "rotation": "[-1.83055227 -2.53851556 -0.00775883]" }, "geometry": { "type": "Point", "coordinates": [ -74.653483605135733, 40.343355688607602, 76.847226284531047 ] } },
{ "type": "Feature", "properties": { "filename": "DJI_0524.JPG", "camera": "v2 dji fc3682 4000 2250 brown 0.6666", "focal": 0.65835135079738949, "width": 4000, "height": 2250, "capture_time": 1789665208.0, "translation": "[5.29455511e+05 4.46596964e+06 7.62932283e+01]", "rotation": "[-1.59269166 -2.70060242 -0.0151923 ]" }, "geometry": { "type": "Point", "coordinates": [ -74.653179810989727, 40.343756169788222, 76.293228341251634 ] } },
{ "type": "Feature", "properties": { "filename": "DJI_0560.JPG", "camera": "v2 dji fc3682 4000 2250 brown 0.6666", "focal": 0.65835135079738949, "width": 4000, "height": 2250, "capture_time": 1789665388.0, "translation": "[5.29444457e+05 4.46599971e+06 7.66054423e+01]", "rotation": "[ 0.74374239 -3.02424092 -0.02346739]" }, "geometry": { "type": "Point", "coordinates": [ -74.653308571854893, 40.34402744822264, 76.605442255877364 ] } },
{ "type": "Feature", "properties": { "filename": "DJI_0502.JPG", "camera": "v2 dji fc3682 4000 2250 brown 0.6666", "focal": 0.65835135079738949, "width": 4000, "height": 2250, "capture_time": 1789665098.0, "translation": "[5.29452666e+05 4.46599864e+06 7.70110541e+01]", "rotation": "[-1.59990116 -2.69405234 -0.02449568]" }, "geometry": { "type": "Point", "coordinates": [ -74.653211966829602, 40.344017534771403, 77.011054096078979 ] } },
{ "type": "Feature", "properties": { "filename": "DJI_0545.JPG", "camera": "v2 dji fc3682 4000 2250 brown 0.6666", "focal": 0.65835135079738949, "width": 4000, "height": 2250, "capture_time": 1789665313.0, "translation": "[5.29246974e+05 4.46590783e+06 7.71240813e+01]", "rotation": "[-2.9667151   1.02227559  0.04318267]" }, "geometry": { "type": "Point", "coordinates": [ -74.655637986191778, 40.343206631315823, 77.124081264490641 ] } },
{ "type": "Feature", "properties": { "filename": "DJI_0537.JPG", "camera": "v2 dji fc3682 4000 2250 brown 0.6666", "focal": 0.65835135079738949, "width": 4000, "height": 2250, "capture_time": 1789665273.0, "translation": "[5.29297478e+05 4.46589053e+06 7.71143754e+01]", "rotation": "[-1.83866286 -2.54569592  0.02053599]" }, "geometry": { "type": "Point", "coordinates": [ -74.655044146700575, 40.343048995880089, 77.114375422348573 ] } },
{ "type": "Feature", "properties": { "filename": "DJI_0559.JPG", "camera": "v2 dji fc3682 4000 2250 brown 0.6666", "focal": 0.65835135079738949, "width": 4000, "height": 2250, "capture_time": 1789665383.0, "translation": "[5.29435656e+05 4.46601357e+06 7.66017336e+01]", "rotation": "[ 0.7481869  -3.0260071  -0.02943303]" }, "geometry": { "type": "Point", "coordinates": [ -74.653411560188999, 40.344152633873371, 76.601733645239221 ] } },
{ "type": "Feature", "properties": { "filename": "DJI_0563.JPG", "camera": "v2 dji fc3682 4000 2250 brown 0.6666", "focal": 0.65835135079738949, "width": 4000, "height": 2250, "capture_time": 1789665403.0, "translation": "[5.29424115e+05 4.46598834e+06 7.63160490e+01]", "rotation": "[-1.53780174 -2.72869516 -0.01826705]" }, "geometry": { "type": "Point", "coordinates": [ -74.653548615274076, 40.343925721075678, 76.316048965204232 ] } },
{ "type": "Feature", "properties": { "filename": "DJI_0553.JPG", "camera": "v2 dji fc3682 4000 2250 brown 0.6666", "focal": 0.65835135079738949, "width": 4000, "height": 2250, "capture_time": 1789665353.0, "translation": "[5.29351737e+05 4.46600079e+06 7.65088904e+01]", "rotation": "[ 2.69041843 -1.58125242 -0.02779244]" }, "geometry": { "type": "Point", "coordinates": [ -74.654400235878285, 40.344040457557178, 76.508890359555622 ] } },
{ "type": "Feature", "properties": { "filename": "DJI_0505.JPG", "camera": "v2 dji fc3682 4000 2250 brown 0.6666", "focal": 0.65835135079738949, "width": 4000, "height": 2250, "capture_time": 1789665113.0, "translation": "[5.29396781e+05 4.46597318e+06 7.67195690e+01]", "rotation": "[-1.60913224 -2.69119485 -0.01389882]" }, "geometry": { "type": "Point", "coordinates": [ -74.653871138313306, 40.343790140627597, 76.719569027196471 ] } },
{ "type": "Feature", "properties": { "filename": "DJI_0569.JPG", "camera": "v2 dji fc3682 4000 2250 brown 0.6666", "focal": 0.65835135079738949, "width": 4000, "height": 2250, "capture_time": 1789665433.0, "translation": "[5.29329144e+05 4.46593700e+06 7.61165660e+01]", "rotation": "[ 1.54969853  2.73147341 -0.01098661]" }, "geometry": { "type": "Point", "coordinates": [ -74.654669172191205, 40.343466541983261, 76.11656601730482 ] } },
{ "type": "Feature", "properties": { "filename": "DJI_0512.JPG", "camera": "v2 dji fc3682 4000 2250 brown 0.6666", "focal": 0.65835135079738949, "width": 4000, "height": 2250, "capture_time": 1789665148.0, "translation": "[5.29236846e+05 4.46589632e+06 7.77907107e+01]", "rotation": "[ 1.59273136  2.69727258 -0.03211015]" }, "geometry": { "type": "Point", "coordinates": [ -74.655757763011962, 40.343103331077806, 77.790710716793285 ] } },
{ "type": "Feature", "properties": { "filename": "DJI_0532.JPG", "camera": "v2 dji fc3682 4000 2250 brown 0.6666", "focal": 0.65835135079738949, "width": 4000, "height": 2250, "capture_time": 1789665248.0, "translation": "[5.29388010e+05 4.46591313e+06 7.66987414e+01]", "rotation": "[-1.83898524 -2.53422478  0.00433093]" }, "geometry": { "type": "Point", "coordinates": [ -74.653977179080044, 40.343249457889748, 76.698741375140457 ] } },
{ "type": "Feature", "properties": { "filename": "DJI_0556.JPG", "camera": "v2 dji fc3682 4000 2250 brown 0.6666", "focal": 0.65835135079738949, "width": 4000, "height": 2250, "capture_time": 1789665368.0, "translation": "[5.29398886e+05 4.46601812e+06 7.66774847e+01]", "rotation": "[ 2.35539826 -2.0404248  -0.02451495]" }, "geometry": { "type": "Point", "coordinates": [ -74.653844287769331, 40.344194961747696, 76.677484748088347 ] } },
{ "type": "Feature", "properties": { "filename": "DJI_0549.JPG", "camera": "v2 dji fc3682 4000 2250 brown 0.6666", "focal": 0.65835135079738949, "width": 4000, "height": 2250, "capture_time": 1789665333.0, "translation": "[5.29280834e+05 4.46595596e+06 7.65441650e+01]", "rotation": "[ 2.71445451 -1.57185844 -0.03848023]" }, "geometry": { "type": "Point", "coordinates": [ -74.655237118576807, 40.343639078702253, 76.544164971869805 ] } },
{ "type": "Feature", "properties": { "filename": "DJI_0493.JPG", "camera": "v2 dji fc3682 4000 2250 brown 0.6666", "focal": 0.65835135079738949, "width": 4000, "height": 2250, "capture_time": 1789665053.0, "translation": "[5.29261245e+05 4.46595021e+06 7.69486109e+01]", "rotation": "[ 1.57078581  2.70202737 -0.01060965]" }, "geometry": { "type": "Point", "coordinates": [ -74.655468024163312, 40.343587943843168, 76.948610898488027 ] } },
{ "type": "Feature", "properties": { "filename": "DJI_0541.JPG", "camera": "v2 dji fc3682 4000 2250 brown 0.6666", "focal": 0.65835135079738949, "width": 4000, "height": 2250, "capture_time": 1789665293.0, "translation": "[5.29238383e+05 4.46587557e+06 7.79242134e+01]", "rotation": "[ 1.81944655  2.55323874 -0.04054363]" }, "geometry": { "type": "Point", "coordinates": [ -74.65574061673513, 40.342916273719844, 77.924213417859875 ] } },
{ "type": "Feature", "properties": { "filename": "DJI_0517.JPG", "camera": "v2 dji fc3682 4000 2250 brown 0.6666", "focal": 0.65835135079738949, "width": 4000, "height": 2250, "capture_time": 1789665173.0, "translation": "[5.29321536e+05 4.46589486e+06 7.56638460e+01]", "rotation": "[ 1.58845415  2.70531012 -0.02262825]" }, "geometry": { "type": "Point", "coordinates": [ -74.654760686838074, 40.343087177369348, 75.663845996131457 ] } },
{ "type": "Feature", "properties": { "filename": "DJI_0551.JPG", "camera": "v2 dji fc3682 4000 2250 brown 0.6666", "focal": 0.65835135079738949, "width": 4000, "height": 2250, "capture_time": 1789665343.0, "translation": "[5.29316745e+05 4.46597829e+06 7.63710527e+01]", "rotation": "[ 2.69973026 -1.57595136 -0.0337984 ]" }, "geometry": { "type": "Point", "coordinates": [ -74.6548132618408, 40.343838997649158, 76.37105269723655 ] } },
{ "type": "Feature", "properties": { "filename": "DJI_0513.JPG", "camera": "v2 dji fc3682 4000 2250 brown 0.6666", "focal": 0.65835135079738949, "width": 4000, "height": 2250, "capture_time": 1789665153.0, "translation": "[5.29246840e+05 4.46588345e+06 7.75081195e+01]", "rotation": "[ 1.58339672  2.70233516 -0.03203903]" }, "geometry": { "type": "Point", "coordinates": [ -74.655640687301585, 40.342986999716885, 77.508119493471625 ] } },
{ "type": "Feature", "properties": { "filename": "DJI_0542.JPG", "camera": "v2 dji fc3682 4000 2250 brown 0.6666", "focal": 0.65835135079738949, "width": 4000, "height": 2250, "capture_time": 1789665298.0, "translation": "[5.29238444e+05 4.46587640e+06 7.78379541e+01]", "rotation": "[-3.12985621  0.21261532  0.04176902]" }, "geometry": { "type": "Point", "coordinates": [ -74.655739859227936, 40.342923780152155, 77.83795410628278 ] } },
{ "type": "Feature", "properties": { "filename": "DJI_0503.JPG", "camera": "v2 dji fc3682 4000 2250 brown 0.6666", "focal": 0.65835135079738949, "width": 4000, "height": 2250, "capture_time": 1789665103.0, "translation": "[5.29448653e+05 4.46599666e+06 7.69297267e+01]", "rotation": "[-1.60292347 -2.69307616 -0.0247926 ]" }, "geometry": { "type": "Point", "coordinates": [ -74.653259308940918, 40.343999863870287, 76.929726653087329 ] } },
{ "type": "Feature", "properties": { "filename": "DJI_0535.JPG", "camera": "v2 dji fc3682 4000 2250 brown 0.6666", "focal": 0.65835135079738949, "width": 4000, "height": 2250, "capture_time": 1789665263.0, "translation": "[5.29330568e+05 4.46589893e+06 7.67939734e+01]", "rotation": "[-1.84094637 -2.53949294  0.01916813]" }, "geometry": { "type": "Point", "coordinates": [ -74.654654163316565, 40.343123517466829, 76.793973372950973 ] } },
{ "type": "Feature", "properties": { "filename": "DJI_0533.JPG", "camera": "v2 dji fc3682 4000 2250 brown 0.6666", "focal": 0.65835135079738949, "width": 4000, "height": 2250, "capture_time": 1789665253.0, "translation": "[5.29369873e+05 4.46590861e+06 7.65829390e+01]", "rotation": "[-1.84004511 -2.5331942   0.00771274]" }, "geometry": { "type": "Point", "coordinates": [ -74.654190936607151, 40.343209342243661, 76.582938962751854 ] } },
{ "type": "Feature", "properties": { "filename": "DJI_0544.JPG", "camera": "v2 dji fc3682 4000 2250 brown 0.6666", "focal": 0.65835135079738949, "width": 4000, "height": 2250, "capture_time": 1789665308.0, "translation": "[5.29244075e+05 4.46590412e+06 7.73174023e+01]", "rotation": "[ 3.13289247 -0.21804333 -0.05083188]" }, "geometry": { "type": "Point", "coordinates": [ -74.655672298866932, 40.34317331813336, 77.317402326848452 ] } },
{ "type": "Feature", "properties": { "filename": "DJI_0547.JPG", "camera": "v2 dji fc3682 4000 2250 brown 0.6666", "focal": 0.65835135079738949, "width": 4000, "height": 2250, "capture_time": 1789665323.0, "translation": "[5.29259663e+05 4.46593125e+06 7.67484924e+01]", "rotation": "[ 3.05754711 -0.69300026 -0.0424859 ]" }, "geometry": { "type": "Point", "coordinates": [ -74.655487521118218, 40.343417178425405, 76.748492401409337 ] } },
{ "type": "Feature", "properties": { "filename": "DJI_0515.JPG", "camera": "v2 dji fc3682 4000 2250 brown 0.6666", "focal": 0.65835135079738949, "width": 4000, "height": 2250, "capture_time": 1789665163.0, "translation": "[5.29280187e+05 4.46587205e+06 7.65631893e+01]", "rotation": "[ 1.58279787  2.70481478 -0.03271961]" }, "geometry": { "type": "Point", "coordinates": [ -74.655248576506722, 40.34288315452693, 76.563189254646161 ] } },
{ "type": "Feature", "properties": { "filename": "DJI_0554.JPG", "camera": "v2 dji fc3682 4000 2250 brown 0.6666", "focal": 0.65835135079738949, "width": 4000, "height": 2250, "capture_time": 1789665358.0, "translation": "[5.29369823e+05 4.46601190e+06 7.66049042e+01]", "rotation": "[ 2.68676916 -1.58336529 -0.02521401]" }, "geometry": { "type": "Point", "coordinates": [ -74.654186764775204, 40.344139889628721, 76.604904195525663 ] } },
{ "type": "Feature", "properties": { "filename": "DJI_0543.JPG", "camera": "v2 dji fc3682 4000 2250 brown 0.6666", "focal": 0.65835135079738949, "width": 4000, "height": 2250, "capture_time": 1789665303.0, "translation": "[5.29241107e+05 4.46588942e+06 7.75495908e+01]", "rotation": "[-3.13311377  0.21524303  0.04710701]" }, "geometry": { "type": "Point", "coordinates": [ -74.655707907594163, 40.343040973483362, 77.549590814565462 ] } },
{ "type": "Feature", "properties": { "filename": "DJI_0538.JPG", "camera": "v2 dji fc3682 4000 2250 brown 0.6666", "focal": 0.65835135079738949, "width": 4000, "height": 2250, "capture_time": 1789665278.0, "translation": "[5.29279462e+05 4.46588603e+06 7.73501072e+01]", "rotation": "[ 1.83832154  2.54531226 -0.02795785]" }, "geometry": { "type": "Point", "coordinates": [ -74.655256471329963, 40.343009136026822, 77.350107210472274 ] } },
{ "type": "Feature", "properties": { "filename": "DJI_0510.JPG", "camera": "v2 dji fc3682 4000 2250 brown 0.6666", "focal": 0.65835135079738949, "width": 4000, "height": 2250, "capture_time": 1789665138.0, "translation": "[5.29271968e+05 4.46591229e+06 7.71381187e+01]", "rotation": "[ 1.59739018  2.6968546  -0.02413451]" }, "geometry": { "type": "Point", "coordinates": [ -74.655343506244918, 40.343245990077612, 77.138118698558031 ] } },
{ "type": "Feature", "properties": { "filename": "DJI_0552.JPG", "camera": "v2 dji fc3682 4000 2250 brown 0.6666", "focal": 0.65835135079738949, "width": 4000, "height": 2250, "capture_time": 1789665348.0, "translation": "[5.29336848e+05 4.46599059e+06 7.64612553e+01]", "rotation": "[ 2.69420782 -1.57943287 -0.02852741]" }, "geometry": { "type": "Point", "coordinates": [ -74.654576002691954, 40.343949089503461, 76.461255303854088 ] } },
{ "type": "Feature", "properties": { "filename": "DJI_0511.JPG", "camera": "v2 dji fc3682 4000 2250 brown 0.6666", "focal": 0.65835135079738949, "width": 4000, "height": 2250, "capture_time": 1789665143.0, "translation": "[5.29246356e+05 4.46590026e+06 7.77122093e+01]", "rotation": "[ 1.59624188  2.69734967 -0.02729855]" }, "geometry": { "type": "Point", "coordinates": [ -74.655645613823935, 40.343138489959792, 77.712209332763422 ] } },
{ "type": "Feature", "properties": { "filename": "DJI_0555.JPG", "camera": "v2 dji fc3682 4000 2250 brown 0.6666", "focal": 0.65835135079738949, "width": 4000, "height": 2250, "capture_time": 1789665363.0, "translation": "[5.29381414e+05 4.46601452e+06 7.65101121e+01]", "rotation": "[ 2.36477947 -2.03622411 -0.0290539 ]" }, "geometry": { "type": "Point", "coordinates": [ -74.654050179202358, 40.344163085974266, 76.510112121086138 ] } },
{ "type": "Feature", "properties": { "filename": "DJI_0522.JPG", "camera": "v2 dji fc3682 4000 2250 brown 0.6666", "focal": 0.65835135079738949, "width": 4000, "height": 2250, "capture_time": 1789665198.0, "translation": "[5.29434556e+05 4.46595782e+06 7.59833548e+01]", "rotation": "[-1.59482677 -2.6991033  -0.01538114]" }, "geometry": { "type": "Point", "coordinates": [ -74.653427086324342, 40.343650446432179, 75.983354816522123 ] } },
{ "type": "Feature", "properties": { "filename": "DJI_0540.JPG", "camera": "v2 dji fc3682 4000 2250 brown 0.6666", "focal": 0.65835135079738949, "width": 4000, "height": 2250, "capture_time": 1789665288.0, "translation": "[5.29240000e+05 4.46587525e+06 7.81559475e+01]", "rotation": "[ 1.82610881  2.5517635  -0.04109673]" }, "geometry": { "type": "Point", "coordinates": [ -74.655721591360575, 40.342913384548318, 78.15594750345042 ] } },
{ "type": "Feature", "properties": { "filename": "DJI_0518.JPG", "camera": "v2 dji fc3682 4000 2250 brown 0.6666", "focal": 0.65835135079738949, "width": 4000, "height": 2250, "capture_time": 1789665178.0, "translation": "[5.29341757e+05 4.46590616e+06 7.54207852e+01]", "rotation": "[ 1.59141799  2.70576295 -0.01494719]" }, "geometry": { "type": "Point", "coordinates": [ -74.654522080232653, 40.343188301082861, 75.420785155835716 ] } },
{ "type": "Feature", "properties": { "filename": "DJI_0546.JPG", "camera": "v2 dji fc3682 4000 2250 brown 0.6666", "focal": 0.65835135079738949, "width": 4000, "height": 2250, "capture_time": 1789665318.0, "translation": "[5.29250360e+05 4.46591214e+06 7.69244667e+01]", "rotation": "[ 3.06352545 -0.69208741 -0.04344678]" }, "geometry": { "type": "Point", "coordinates": [ -74.655597928770206, 40.343245397217082, 76.924466660952021 ] } },
{ "type": "Feature", "properties": { "filename": "DJI_0504.JPG", "camera": "v2 dji fc3682 4000 2250 brown 0.6666", "focal": 0.65835135079738949, "width": 4000, "height": 2250, "capture_time": 1789665108.0, "translation": "[5.29428334e+05 4.46598789e+06 7.67905218e+01]", "rotation": "[-1.60632934 -2.69001242 -0.02106379]" }, "geometry": { "type": "Point", "coordinates": [ -74.653498957293834, 40.343921575054999, 76.790521829202035 ] } },
{ "type": "Feature", "properties": { "filename": "DJI_0514.JPG", "camera": "v2 dji fc3682 4000 2250 brown 0.6666", "focal": 0.65835135079738949, "width": 4000, "height": 2250, "capture_time": 1789665158.0, "translation": "[5.29262452e+05 4.46586230e+06 7.71751091e+01]", "rotation": "[ 1.58248605  2.70460237 -0.03434522]" }, "geometry": { "type": "Point", "coordinates": [ -74.655457834500481, 40.342795929258848, 77.175109086848991 ] } },
{ "type": "Feature", "properties": { "filename": "DJI_0548.JPG", "camera": "v2 dji fc3682 4000 2250 brown 0.6666", "focal": 0.65835135079738949, "width": 4000, "height": 2250, "capture_time": 1789665328.0, "translation": "[5.29268062e+05 4.46594780e+06 7.66908905e+01]", "rotation": "[ 3.05461408 -0.69573514 -0.04403301]" }, "geometry": { "type": "Point", "coordinates": [ -74.655387869799114, 40.343565995946555, 76.69089046055808 ] } },
{ "type": "Feature", "properties": { "filename": "DJI_0570.JPG", "camera": "v2 dji fc3682 4000 2250 brown 0.6666", "focal": 0.65835135079738949, "width": 4000, "height": 2250, "capture_time": 1789665438.0, "translation": "[5.29329259e+05 4.46593723e+06 7.58622378e+01]", "rotation": "[ 1.53441141  2.74050448 -0.01071465]" }, "geometry": { "type": "Point", "coordinates": [ -74.654667814798827, 40.34346860566923, 75.862237776396668 ] } },
{ "type": "Feature", "properties": { "filename": "DJI_0501.JPG", "camera": "v2 dji fc3682 4000 2250 brown 0.6666", "focal": 0.65835135079738949, "width": 4000, "height": 2250, "capture_time": 1789665093.0, "translation": "[5.29437669e+05 4.46601862e+06 7.69892155e+01]", "rotation": "[-1.59714465 -2.69811129 -0.02349034]" }, "geometry": { "type": "Point", "coordinates": [ -74.653387628504973, 40.344198073234203, 76.989215501047198 ] } },
{ "type": "Feature", "properties": { "filename": "DJI_0550.JPG", "camera": "v2 dji fc3682 4000 2250 brown 0.6666", "focal": 0.65835135079738949, "width": 4000, "height": 2250, "capture_time": 1789665338.0, "translation": "[5.29300308e+05 4.46596790e+06 7.63933253e+01]", "rotation": "[ 2.7054183  -1.57417335 -0.03411133]" }, "geometry": { "type": "Point", "coordinates": [ -74.655007278022325, 40.343745922638746, 76.393325308969466 ] } },
{ "type": "Feature", "properties": { "filename": "DJI_0494.JPG", "camera": "v2 dji fc3682 4000 2250 brown 0.6666", "focal": 0.65835135079738949, "width": 4000, "height": 2250, "capture_time": 1789665058.0, "translation": "[5.29271836e+05 4.46593789e+06 7.67193422e+01]", "rotation": "[ 1.56990329  2.70564888 -0.01081227]" }, "geometry": { "type": "Point", "coordinates": [ -74.655343884652112, 40.343476593248724, 76.719342206838874 ] } },
{ "type": "Feature", "properties": { "filename": "DJI_0521.JPG", "camera": "v2 dji fc3682 4000 2250 brown 0.6666", "focal": 0.65835135079738949, "width": 4000, "height": 2250, "capture_time": 1789665193.0, "translation": "[5.29411490e+05 4.46594531e+06 7.57066534e+01]", "rotation": "[-1.59774078 -2.69846431 -0.00669308]" }, "geometry": { "type": "Point", "coordinates": [ -74.653699236525839, 40.343538530822485, 75.706653442848975 ] } },
{ "type": "Feature", "properties": { "filename": "DJI_0495.JPG", "camera": "v2 dji fc3682 4000 2250 brown 0.6666", "focal": 0.65835135079738949, "width": 4000, "height": 2250, "capture_time": 1789665063.0, "translation": "[5.29272795e+05 4.46593720e+06 7.67179653e+01]", "rotation": "[ 1.57331272  2.70340177 -0.0123027 ]" }, "geometry": { "type": "Point", "coordinates": [ -74.65533262519557, 40.343470314932489, 76.717965349042501 ] } },
{ "type": "Feature", "properties": { "filename": "DJI_0565.JPG", "camera": "v2 dji fc3682 4000 2250 brown 0.6666", "focal": 0.65835135079738949, "width": 4000, "height": 2250, "capture_time": 1789665413.0, "translation": "[5.29388172e+05 4.46596739e+06 7.61320086e+01]", "rotation": "[-1.54339293 -2.72760448 -0.00742345]" }, "geometry": { "type": "Point", "coordinates": [ -74.653972779471161, 40.343738243855192, 76.13200861418531 ] } },
{ "type": "Feature", "properties": { "filename": "DJI_0508.JPG", "camera": "v2 dji fc3682 4000 2250 brown 0.6666", "focal": 0.65835135079738949, "width": 4000, "height": 2250, "capture_time": 1789665128.0, "translation": "[5.29322036e+05 4.46593606e+06 7.64618550e+01]", "rotation": "[ 1.60460272  2.69607072 -0.00928627]" }, "geometry": { "type": "Point", "coordinates": [ -74.654752911018718, 40.34345832887643, 76.461855039838781 ] } },
{ "type": "Feature", "properties": { "filename": "DJI_0567.JPG", "camera": "v2 dji fc3682 4000 2250 brown 0.6666", "focal": 0.65835135079738949, "width": 4000, "height": 2250, "capture_time": 1789665423.0, "translation": "[5.29355503e+05 4.46595017e+06 7.62112150e+01]", "rotation": "[-1.54668889e+00 -2.73009216e+00  4.95975421e-04]" }, "geometry": { "type": "Point", "coordinates": [ -74.654358221067994, 40.343584249561268, 76.211215011525354 ] } },
{ "type": "Feature", "properties": { "filename": "DJI_0539.JPG", "camera": "v2 dji fc3682 4000 2250 brown 0.6666", "focal": 0.65835135079738949, "width": 4000, "height": 2250, "capture_time": 1789665283.0, "translation": "[5.29261658e+05 4.46588117e+06 7.77126641e+01]", "rotation": "[ 1.8328899   2.5473842  -0.03730198]" }, "geometry": { "type": "Point", "coordinates": [ -74.655466319369552, 40.342965963080935, 77.712664133137665 ] } },
{ "type": "Feature", "properties": { "filename": "DJI_0557.JPG", "camera": "v2 dji fc3682 4000 2250 brown 0.6666", "focal": 0.65835135079738949, "width": 4000, "height": 2250, "capture_time": 1789665373.0, "translation": "[5.29412178e+05 4.46601720e+06 7.67574612e+01]", "rotation": "[ 2.08259131 -2.31624371 -0.02169182]" }, "geometry": { "type": "Point", "coordinates": [ -74.653687830673732, 40.344186160582254, 76.757461165757078 ] } },
{ "type": "Feature", "properties": { "filename": "DJI_0564.JPG", "camera": "v2 dji fc3682 4000 2250 brown 0.6666", "focal": 0.65835135079738949, "width": 4000, "height": 2250, "capture_time": 1789665408.0, "translation": "[5.29407470e+05 4.46597858e+06 7.62744169e+01]", "rotation": "[-1.54085348 -2.72723453 -0.01247779]" }, "geometry": { "type": "Point", "coordinates": [ -74.653745036204072, 40.343838388438016, 76.274416917515367 ] } },
{ "type": "Feature", "properties": { "filename": "DJI_0568.JPG", "camera": "v2 dji fc3682 4000 2250 brown 0.6666", "focal": 0.65835135079738949, "width": 4000, "height": 2250, "capture_time": 1789665428.0, "translation": "[5.29341839e+05 4.46594303e+06 7.62698723e+01]", "rotation": "[-1.54972528 -2.73087609  0.00484124]" }, "geometry": { "type": "Point", "coordinates": [ -74.654519430000434, 40.343520442286128, 76.269872260414701 ] } },
{ "type": "Feature", "properties": { "filename": "DJI_0566.JPG", "camera": "v2 dji fc3682 4000 2250 brown 0.6666", "focal": 0.65835135079738949, "width": 4000, "height": 2250, "capture_time": 1789665418.0, "translation": "[5.29370472e+05 4.46595736e+06 7.62254598e+01]", "rotation": "[-1.54684181e+00 -2.72890379e+00 -1.53306633e-03]" }, "geometry": { "type": "Point", "coordinates": [ -74.65418163322056, 40.343648491609287, 76.225459819663854 ] } },
{ "type": "Feature", "properties": { "filename": "DJI_0523.JPG", "camera": "v2 dji fc3682 4000 2250 brown 0.6666", "focal": 0.65835135079738949, "width": 4000, "height": 2250, "capture_time": 1789665203.0, "translation": "[5.29452338e+05 4.46596774e+06 7.62563352e+01]", "rotation": "[-1.59542543 -2.69849548 -0.01644284]" }, "geometry": { "type": "Point", "coordinates": [ -74.653217250984724, 40.343739141759968, 76.256335173864642 ] } },
{ "type": "Feature", "properties": { "filename": "DJI_0498.JPG", "camera": "v2 dji fc3682 4000 2250 brown 0.6666", "focal": 0.65835135079738949, "width": 4000, "height": 2250, "capture_time": 1789665078.0, "translation": "[5.29364598e+05 4.46598601e+06 7.60920450e+01]", "rotation": "[1.59767738 2.70432254 0.00477882]" }, "geometry": { "type": "Point", "coordinates": [ -74.654249477160974, 40.343906847184911, 76.092044964876834 ] } },
{ "type": "Feature", "properties": { "filename": "DJI_0497.JPG", "camera": "v2 dji fc3682 4000 2250 brown 0.6666", "focal": 0.65835135079738949, "width": 4000, "height": 2250, "capture_time": 1789665073.0, "translation": "[5.29319970e+05 4.46596249e+06 7.61128739e+01]", "rotation": "[ 1.58685218  2.70477524 -0.0037871 ]" }, "geometry": { "type": "Point", "coordinates": [ -74.654776016496683, 40.343696497425164, 76.112873944768637 ] } },
{ "type": "Feature", "properties": { "filename": "DJI_0520.JPG", "camera": "v2 dji fc3682 4000 2250 brown 0.6666", "focal": 0.65835135079738949, "width": 4000, "height": 2250, "capture_time": 1789665188.0, "translation": "[5.29388218e+05 4.46593203e+06 7.54362868e+01]", "rotation": "[-1.59671556e+00 -2.70103470e+00 -1.72178558e-04]" }, "geometry": { "type": "Point", "coordinates": [ -74.653973863644296, 40.34341971048925, 75.43628675475712 ] } },
{ "type": "Feature", "properties": { "filename": "DJI_0525.JPG", "camera": "v2 dji fc3682 4000 2250 brown 0.6666", "focal": 0.65835135079738949, "width": 4000, "height": 2250, "capture_time": 1789665213.0, "translation": "[5.29464371e+05 4.46595850e+06 7.63953142e+01]", "rotation": "[-1.59295838 -2.69513509 -0.01553771]" }, "geometry": { "type": "Point", "coordinates": [ -74.653075999383461, 40.343655518058924, 76.395314235213149 ] } },
{ "type": "Feature", "properties": { "filename": "DJI_0499.JPG", "camera": "v2 dji fc3682 4000 2250 brown 0.6666", "focal": 0.65835135079738949, "width": 4000, "height": 2250, "capture_time": 1789665083.0, "translation": "[5.29408316e+05 4.46600884e+06 7.65502301e+01]", "rotation": "[-1.5905496  -2.70320249 -0.01851766]" }, "geometry": { "type": "Point", "coordinates": [ -74.653733684855737, 40.344111000345208, 76.550230119851875 ] } },
{ "type": "Feature", "properties": { "filename": "DJI_0562.JPG", "camera": "v2 dji fc3682 4000 2250 brown 0.6666", "focal": 0.65835135079738949, "width": 4000, "height": 2250, "capture_time": 1789665398.0, "translation": "[5.29433858e+05 4.46599371e+06 7.63315711e+01]", "rotation": "[-1.53420395 -2.73061726 -0.02247993]" }, "geometry": { "type": "Point", "coordinates": [ -74.65343365015805, 40.343973773666718, 76.331571074091642 ] } },
{ "type": "Feature", "properties": { "filename": "DJI_0531.JPG", "camera": "v2 dji fc3682 4000 2250 brown 0.6666", "focal": 0.65835135079738949, "width": 4000, "height": 2250, "capture_time": 1789665243.0, "translation": "[5.29406935e+05 4.46591831e+06 7.67085769e+01]", "rotation": "[-1.83535518e+00 -2.53552906e+00 -1.35749247e-03]" }, "geometry": { "type": "Point", "coordinates": [ -74.653754119084525, 40.343295418914245, 76.708576885381646 ] } },
{ "type": "Feature", "properties": { "filename": "DJI_0561.JPG", "camera": "v2 dji fc3682 4000 2250 brown 0.6666", "focal": 0.65835135079738949, "width": 4000, "height": 2250, "capture_time": 1789665393.0, "translation": "[5.29444322e+05 4.46599983e+06 7.63618901e+01]", "rotation": "[-1.86243495 -2.5233291  -0.02990646]" }, "geometry": { "type": "Point", "coordinates": [ -74.653310156041073, 40.344028505650165, 76.361890134734395 ] } },
{ "type": "Feature", "properties": { "filename": "DJI_0558.JPG", "camera": "v2 dji fc3682 4000 2250 brown 0.6666", "focal": 0.65835135079738949, "width": 4000, "height": 2250, "capture_time": 1789665378.0, "translation": "[5.29432719e+05 4.46601631e+06 7.69446045e+01]", "rotation": "[ 2.07516789 -2.31687382 -0.01584505]" }, "geometry": { "type": "Point", "coordinates": [ -74.653446017680508, 40.344177391424545, 76.944604467007082 ] } }
]
}
